{"type": "FeatureCollection", "features": [{"type": "Feature", "properties": {"norad_id": 2807, "name": "OPS 7218 (TRANSIT 16)", "group": "nnss", "lat": -75.74316370319043, "lon": -7.760613827178573, "alt_km": 1091.339925348865, "timestamp": "2025-12-27T12:55:14.773688+00:00", "meta": {"OBJECT_NAME": "OPS 7218 (TRANSIT 16)", "OBJECT_ID": "1967-048A", "EPOCH": "2025-12-27T06:14:25.688256", "MEAN_MOTION": 13.50725258, "ECCENTRICITY": 0.00221178, "INCLINATION": 89.6735, "RA_OF_ASC_NODE": 353.5344, "ARG_OF_PERICENTER": 75.4667, "MEAN_ANOMALY": 296.2606, "EPHEMERIS_TYPE": 0, "CLASSIFICATION_TYPE": "U", "NORAD_CAT_ID": 2807, "ELEMENT_SET_NO": 999, "REV_AT_EPOCH": 88472, "BSTAR": 0.00016857988, "MEAN_MOTION_DOT": 1.19e-06, "MEAN_MOTION_DDOT": 0}, "tle": {"line1": "1 02807U 67048A   25361.26001954  .00000119  00000+0  16858-3 0  9997", "line2": "2 02807  89.6735 353.5344 0022117  75.4667 296.2606 13.50725258884720"}}, "geometry": {"type": "Point", "coordinates": [-7.760613827178573, -75.74316370319043]}}, {"type": "Feature", "properties": {"norad_id": 2965, "name": "OPS 4947 (TRANSIT 17)", "group": "nnss", "lat": 46.118911020137865, "lon": -157.47577292967676, "alt_km": 1036.2950548914014, "timestamp": "2025-12-27T12:55:14.773711+00:00", "meta": {"OBJECT_NAME": "OPS 4947 (TRANSIT 17)", "OBJECT_ID": "1967-092A", "EPOCH": "2025-12-27T01:44:28.419360", "MEAN_MOTION": 13.53457396, "ECCENTRICITY": 0.00472819, "INCLINATION": 89.2485, "RA_OF_ASC_NODE": 23.3417, "ARG_OF_PERICENTER": 192.1031, "MEAN_ANOMALY": 193.8499, "EPHEMERIS_TYPE": 0, "CLASSIFICATION_TYPE": "U", "NORAD_CAT_ID": 2965, "ELEMENT_SET_NO": 999, "REV_AT_EPOCH": 87291, "BSTAR": 0.00019935644, "MEAN_MOTION_DOT": 1.46e-06, "MEAN_MOTION_DDOT": 0}, "tle": {"line1": "1 02965U 67092A   25361.07255115  .00000146  00000+0  19936-3 0  9990", "line2": "2 02965  89.2485  23.3417 0047281 192.1031 193.8499 13.53457396872915"}}, "geometry": {"type": "Point", "coordinates": [-157.47577292967676, 46.118911020137865]}}, {"type": "Feature", "properties": {"norad_id": 3133, "name": "OPS 7034 (TRANSIT 18)", "group": "nnss", "lat": -3.791374572147783, "lon": 93.67939143075381, "alt_km": 1039.1617647506773, "timestamp": "2025-12-27T12:55:14.773725+00:00", "meta": {"OBJECT_NAME": "OPS 7034 (TRANSIT 18)", "OBJECT_ID": "1968-012A", "EPOCH": "2025-12-27T07:16:51.956832", "MEAN_MOTION": 13.51569235, "ECCENTRICITY": 0.0075134, "INCLINATION": 90.0284, "RA_OF_ASC_NODE": 273.6806, "ARG_OF_PERICENTER": 127.3584, "MEAN_ANOMALY": 352.9174, "EPHEMERIS_TYPE": 0, "CLASSIFICATION_TYPE": "U", "NORAD_CAT_ID": 3133, "ELEMENT_SET_NO": 999, "REV_AT_EPOCH": 57115, "BSTAR": 0.00020808153, "MEAN_MOTION_DOT": 1.48e-06, "MEAN_MOTION_DDOT": 0}, "tle": {"line1": "1 03133U 68012A   25361.30337913  .00000148  00000+0  20808-3 0  9996", "line2": "2 03133  90.0284 273.6806 0075134 127.3584 352.9174 13.51569235571157"}}, "geometry": {"type": "Point", "coordinates": [93.67939143075381, -3.791374572147783]}}, {"type": "Feature", "properties": {"norad_id": 4507, "name": "NNSS 19 (TRANSIT 19)", "group": "nnss", "lat": 40.69164530857956, "lon": 54.547553549883055, "alt_km": 1107.4410930478834, "timestamp": "2025-12-27T12:55:14.773738+00:00", "meta": {"OBJECT_NAME": "NNSS 19 (TRANSIT 19)", "OBJECT_ID": "1970-067A", "EPOCH": "2025-12-27T03:19:49.282176", "MEAN_MOTION": 13.51318074, "ECCENTRICITY": 0.01702391, "INCLINATION": 90.0045, "RA_OF_ASC_NODE": 234.5435, "ARG_OF_PERICENTER": 251.2246, "MEAN_ANOMALY": 107.037, "EPHEMERIS_TYPE": 0, "CLASSIFICATION_TYPE": "U", "NORAD_CAT_ID": 4507, "ELEMENT_SET_NO": 999, "REV_AT_EPOCH": 72416, "BSTAR": 0.00013052055, "MEAN_MOTION_DOT": 1.01e-06, "MEAN_MOTION_DDOT": 0}, "tle": {"line1": "1 04507U 70067A   25361.13876484  .00000101  00000+0  13052-3 0  9999", "line2": "2 04507  90.0045 234.5435 0170239 251.2246 107.0370 13.51318074724167"}}, "geometry": {"type": "Point", "coordinates": [54.547553549883055, 40.69164530857956]}}, {"type": "Feature", "properties": {"norad_id": 6909, "name": "NNSS 20 (TRANSIT 20)", "group": "nnss", "lat": -24.61184670427974, "lon": 74.89857338941209, "alt_km": 1113.2308762937791, "timestamp": "2025-12-27T12:55:14.773749+00:00", "meta": {"OBJECT_NAME": "NNSS 20 (TRANSIT 20)", "OBJECT_ID": "1973-081A", "EPOCH": "2025-12-27T06:40:47.864928", "MEAN_MOTION": 13.71442091, "ECCENTRICITY": 0.01559845, "INCLINATION": 89.8558, "RA_OF_ASC_NODE": 254.8364, "ARG_OF_PERICENTER": 35.2081, "MEAN_ANOMALY": 325.9268, "EPHEMERIS_TYPE": 0, "CLASSIFICATION_TYPE": "U", "NORAD_CAT_ID": 6909, "ELEMENT_SET_NO": 999, "REV_AT_EPOCH": 80560, "BSTAR": 0.00028554153, "MEAN_MOTION_DOT": 2.91e-06, "MEAN_MOTION_DDOT": 0}, "tle": {"line1": "1 06909U 73081A   25361.27833177  .00000291  00000+0  28554-3 0  9996", "line2": "2 06909  89.8558 254.8364 0155984  35.2081 325.9268 13.71442091805608"}}, "geometry": {"type": "Point", "coordinates": [74.89857338941209, -24.61184670427974]}}, {"type": "Feature", "properties": {"norad_id": 10457, "name": "TRANSAT", "group": "nnss", "lat": 19.54349130017332, "lon": 78.19788864260966, "alt_km": 1088.481691437958, "timestamp": "2025-12-27T12:55:14.773760+00:00", "meta": {"OBJECT_NAME": "TRANSAT", "OBJECT_ID": "1977-106A", "EPOCH": "2025-12-27T04:12:20.051712", "MEAN_MOTION": 13.48945884, "ECCENTRICITY": 0.00266749, "INCLINATION": 89.6473, "RA_OF_ASC_NODE": 78.0855, "ARG_OF_PERICENTER": 148.7401, "MEAN_ANOMALY": 268.7469, "EPHEMERIS_TYPE": 0, "CLASSIFICATION_TYPE": "U", "NORAD_CAT_ID": 10457, "ELEMENT_SET_NO": 999, "REV_AT_EPOCH": 36938, "BSTAR": 0.00012462096, "MEAN_MOTION_DOT": 8.9e-07, "MEAN_MOTION_DDOT": 0}, "tle": {"line1": "1 10457U 77106A   25361.17523208  .00000089  00000+0  12462-3 0  9997", "line2": "2 10457  89.6473  78.0855 0026674 148.7401 268.7469 13.48945884369384"}}, "geometry": {"type": "Point", "coordinates": [78.19788864260966, 19.54349130017332]}}, {"type": "Feature", "properties": {"norad_id": 12458, "name": "NOVA 1", "group": "nnss", "lat": -4.327256646625292, "lon": 91.16471829129425, "alt_km": 1171.958305362209, "timestamp": "2025-12-27T12:55:14.773771+00:00", "meta": {"OBJECT_NAME": "NOVA 1", "OBJECT_ID": "1981-044A", "EPOCH": "2025-12-27T07:49:23.643840", "MEAN_MOTION": 13.23280201, "ECCENTRICITY": 0.00156415, "INCLINATION": 89.8525, "RA_OF_ASC_NODE": 91.1789, "ARG_OF_PERICENTER": 68.0967, "MEAN_ANOMALY": 356.6259, "EPHEMERIS_TYPE": 0, "CLASSIFICATION_TYPE": "U", "NORAD_CAT_ID": 12458, "ELEMENT_SET_NO": 999, "REV_AT_EPOCH": 15379, "BSTAR": 0.00012527401, "MEAN_MOTION_DOT": 6.2e-07, "MEAN_MOTION_DDOT": 0}, "tle": {"line1": "1 12458U 81044A   25361.32596810  .00000062  00000+0  12527-3 0  9995", "line2": "2 12458  89.8525  91.1789 0015641  68.0967 356.6259 13.23280201153790"}}, "geometry": {"type": "Point", "coordinates": [91.16471829129425, -4.327256646625292]}}, {"type": "Feature", "properties": {"norad_id": 15362, "name": "NOVA 3", "group": "nnss", "lat": -35.96942687159928, "lon": -99.3797670693246, "alt_km": 1172.8895691957086, "timestamp": "2025-12-27T12:55:14.773782+00:00", "meta": {"OBJECT_NAME": "NOVA 3", "OBJECT_ID": "1984-110A", "EPOCH": "2025-12-27T06:41:48.293952", "MEAN_MOTION": 13.23046512, "ECCENTRICITY": 0.00298338, "INCLINATION": 90.1216, "RA_OF_ASC_NODE": 80.7055, "ARG_OF_PERICENTER": 289.9278, "MEAN_ANOMALY": 131.7863, "EPHEMERIS_TYPE": 0, "CLASSIFICATION_TYPE": "U", "NORAD_CAT_ID": 15362, "ELEMENT_SET_NO": 999, "REV_AT_EPOCH": 98891, "BSTAR": 0.00019179605, "MEAN_MOTION_DOT": 8.9e-07, "MEAN_MOTION_DDOT": 0}, "tle": {"line1": "1 15362U 84110A   25361.27903118  .00000089  00000+0  19180-3 0  9997", "line2": "2 15362  90.1216  80.7055 0029833 289.9278 131.7863 13.23046512988914"}}, "geometry": {"type": "Point", "coordinates": [-99.3797670693246, -35.96942687159928]}}, {"type": "Feature", "properties": {"norad_id": 15935, "name": "OSCAR 30", "group": "nnss", "lat": -88.9714555706475, "lon": -89.16376763435424, "alt_km": 1217.46516880321, "timestamp": "2025-12-27T12:55:14.773793+00:00", "meta": {"OBJECT_NAME": "OSCAR 30", "OBJECT_ID": "1985-066A", "EPOCH": "2025-12-27T06:26:13.450272", "MEAN_MOTION": 13.36080793, "ECCENTRICITY": 0.01687057, "INCLINATION": 90.1653, "RA_OF_ASC_NODE": 100.0846, "ARG_OF_PERICENTER": 43.2828, "MEAN_ANOMALY": 8.4639, "EPHEMERIS_TYPE": 0, "CLASSIFICATION_TYPE": "U", "NORAD_CAT_ID": 15935, "ELEMENT_SET_NO": 999, "REV_AT_EPOCH": 96647, "BSTAR": 0.00016690867, "MEAN_MOTION_DOT": 1.02e-06, "MEAN_MOTION_DDOT": 0}, "tle": {"line1": "1 15935U 85066A   25361.26821123  .00000102  00000+0  16691-3 0  9998", "line2": "2 15935  90.1653 100.0846 0168705  43.2828   8.4639 13.36080793966474"}}, "geometry": {"type": "Point", "coordinates": [-89.16376763435424, -88.9714555706475]}}, {"type": "Feature", "properties": {"norad_id": 15936, "name": "OSCAR 24", "group": "nnss", "lat": -23.813085601789748, "lon": 92.64622041807407, "alt_km": 1090.0074648514192, "timestamp": "2025-12-27T12:55:14.773804+00:00", "meta": {"OBJECT_NAME": "OSCAR 24", "OBJECT_ID": "1985-066B", "EPOCH": "2025-12-27T07:58:31.321344", "MEAN_MOTION": 13.35938011, "ECCENTRICITY": 0.01698896, "INCLINATION": 90.1791, "RA_OF_ASC_NODE": 92.5635, "ARG_OF_PERICENTER": 49.5567, "MEAN_ANOMALY": 18.1592, "EPHEMERIS_TYPE": 0, "CLASSIFICATION_TYPE": "U", "NORAD_CAT_ID": 15936, "ELEMENT_SET_NO": 999, "REV_AT_EPOCH": 96838, "BSTAR": 0.0001491353, "MEAN_MOTION_DOT": 9.2e-07, "MEAN_MOTION_DDOT": 0}, "tle": {"line1": "1 15936U 85066B   25361.33230696  .00000092  00000+0  14914-3 0  9990", "line2": "2 15936  90.1791  92.5635 0169889  49.5567  18.1592 13.35938011968384"}}, "geometry": {"type": "Point", "coordinates": [92.64622041807407, -23.813085601789748]}}]}